[{"spaceTrack":{"CCSDS_OMM_VERS":"2.0","COMMENT":"GENERATED VIA SPACE-TRACK.ORG API","CREATION_DATE":"2021-10-26T14:36:12","ORIGINATOR":"18 SPCS","OBJECT_NAME":"STARLINK-1582","OBJECT_ID":"2020-055S","CENTER_NAME":"EARTH","REF_FRAME":"TEME","TIME_SYSTEM":"UTC","MEAN_ELEMENT_THEORY":"SGP4","EPOCH":"2021-10-26T10:43:41.292480","MEAN_MOTION":15.06396343,"ECCENTRICITY":0.0001398,"INCLINATION":53.0551,"RA_OF_ASC_NODE":87.9474,"ARG_OF_PERICENTER":76.4769,"MEAN_ANOMALY":283.6376,"EPHEMERIS_TYPE":0,"CLASSIFICATION_TYPE":"U","NORAD_CAT_ID":46043,"ELEMENT_SET_NO":999,"REV_AT_EPOCH":6793,"BSTAR":0.00010129,"MEAN_MOTION_DOT":0.00001227,"MEAN_MOTION_DDOT":0,"SEMIMAJOR_AXIS":6925.36,"PERIOD":95.592,"APOAPSIS":548.193,"PERIAPSIS":546.257,"OBJECT_TYPE":"PAYLOAD","RCS_SIZE":"LARGE","COUNTRY_CODE":"US","LAUNCH_DATE":"2020-08-07","SITE":"AFETR","DECAY_DATE":null,"DECAYED":0,"FILE":3184693,"GP_ID":188172563,"TLE_LINE0":"0 STARLINK-1582","TLE_LINE1":"1 46043U 20055S   21299.44700570  .00001227  00000-0  10129-3 0  9997","TLE_LINE2":"2 46043  53.0551  87.9474 0001398  76.4769 283.6376 15.06396343 67937"},"height_km":546.8793852675026,"latitude":14.90402392162544,"launch":"5ed9819a1f30554030d45c29","longitude":-170.5257910650634,"velocity_kms":7.591325027050256,"version":"v1.0","id":"5f36cb59bd888300062740d3"},{"spaceTrack":{"CCSDS_OMM_VERS":"2.0","COMMENT":"GENERATED VIA SPACE-TRACK.ORG API","CREATION_DATE":"2021-10-26T06:46:11","ORIGINATOR":"18 SPCS","OBJECT_NAME":"STARLINK-1514","OBJECT_ID":"2020-055V","CENTER_NAME":"EARTH","REF_FRAME":"TEME","TIME_SYSTEM":"UTC","MEAN_ELEMENT_THEORY":"SGP4","EPOCH":"2021-10-25T21:10:01.096032","MEAN_MOTION":15.42183606,"ECCENTRICITY":0.0002256,"INCLINATION":53.0567,"RA_OF_ASC_NODE":70.6077,"ARG_OF_PERICENTER":34.8815,"MEAN_ANOMALY":325.2337,"EPHEMERIS_TYPE":0,"CLASSIFICATION_TYPE":"U","NORAD_CAT_ID":46046,"ELEMENT_SET_NO":999,"REV_AT_EPOCH":6813,"BSTAR":0.000096195,"MEAN_MOTION_DOT":0.00003779,"MEAN_MOTION_DDOT":0,"SEMIMAJOR_AXIS":6817.803,"PERIOD":93.374,"APOAPSIS":441.206,"PERIAPSIS":438.13,"OBJECT_TYPE":"PAYLOAD","RCS_SIZE":"LARGE","COUNTRY_CODE":"US","LAUNCH_DATE":"2020-08-07","SITE":"AFETR","DECAY_DATE":null,"DECAYED":0,"FILE":3184113,"GP_ID":188158475,"TLE_LINE0":"0 STARLINK-1514","TLE_LINE1":"1 46046U 20055V   21298.88195713  .00003779  00000-0  96195-4 0  9996","TLE_LINE2":"2 46046  53.0567  70.6077 0002256  34.8815 325.2337 15.42183606 68138"},"height_km":453.6462290412919,"latitude":-41.85140217173299,"launch":"5ed9819a1f30554030d45c29","longitude":115.8651823696857,"velocity_kms":7.639975507881355,"version":"v1.0","id":"5f36cb59bd888300062740cf"},{"spaceTrack":{"CCSDS_OMM_VERS":"2.0","COMMENT":"GENERATED VIA SPACE-TRACK.ORG API","CREATION_DATE":"2021-10-26T14:36:12","ORIGINATOR":"18 SPCS","OBJECT_NAME":"STARLINK-1583","OBJECT_ID":"2020-055AP","CENTER_NAME":"EARTH","REF_FRAME":"TEME","TIME_SYSTEM":"UTC","MEAN_ELEMENT_THEORY":"SGP4","EPOCH":"2021-10-26T11:06:15.104448","MEAN_MOTION":15.06401641,"ECCENTRICITY":0.0001138,"INCLINATION":53.0541,"RA_OF_ASC_NODE":77.862,"ARG_OF_PERICENTER":93.1009,"MEAN_ANOMALY":267.011,"EPHEMERIS_TYPE":0,"CLASSIFICATION_TYPE":"U","NORAD_CAT_ID":46064,"ELEMENT_SET_NO":999,"REV_AT_EPOCH":6806,"BSTAR":0.00011848,"MEAN_MOTION_DOT":0.00001484,"MEAN_MOTION_DDOT":0,"SEMIMAJOR_AXIS":6925.344,"PERIOD":95.592,"APOAPSIS":547.997,"PERIAPSIS":546.42,"OBJECT_TYPE":"PAYLOAD","RCS_SIZE":"LARGE","COUNTRY_CODE":"US","LAUNCH_DATE":"2020-08-07","SITE":"AFETR","DECAY_DATE":null,"DECAYED":0,"FILE":3184693,"GP_ID":188172571,"TLE_LINE0":"0 STARLINK-1583","TLE_LINE1":"1 46064U 20055AP  21299.46267482  .00001484  00000-0  11848-3 0  9996","TLE_LINE2":"2 46064  53.0541  77.8620 0001138  93.1009 267.0110 15.06401641 68060"},"height_km":564.0487702819337,"latitude":-47.1910060036502,"launch":"5ed9819a1f30554030d45c29","longitude":114.12630079099911,"velocity_kms":7.578621276418477,"version":"v1.0","id":"5f36cb59bd888300062740d5"},{"spaceTrack":{"CCSDS_OMM_VERS":"2.0","COMMENT":"GENERATED VIA SPACE-TRACK.ORG API","CREATION_DATE":"2021-10-25T22:26:12","ORIGINATOR":"18 SPCS","OBJECT_NAME":"STARLINK-1554","OBJECT_ID":"2020-055AE","CENTER_NAME":"EARTH","REF_FRAME":"TEME","TIME_SYSTEM":"UTC","MEAN_ELEMENT_THEORY":"SGP4","EPOCH":"2021-10-25T15:22:37.792416","MEAN_MOTION":15.06398909,"ECCENTRICITY":0.0001274,"INCLINATION":53.0553,"RA_OF_ASC_NODE":81.5676,"ARG_OF_PERICENTER":88.3668,"MEAN_ANOMALY":271.7467,"EPHEMERIS_TYPE":0,"CLASSIFICATION_TYPE":"U","NORAD_CAT_ID":46055,"ELEMENT_SET_NO":999,"REV_AT_EPOCH":6792,"BSTAR":0.0000947,"MEAN_MOTION_DOT":0.00001129,"MEAN_MOTION_DDOT":0,"SEMIMAJOR_AXIS":6925.352,"PERIOD":95.592,"APOAPSIS":548.099,"PERIAPSIS":546.335,"OBJECT_TYPE":"PAYLOAD","RCS_SIZE":"LARGE","COUNTRY_CODE":"US","LAUNCH_DATE":"2020-08-07","SITE":"AFETR","DECAY_DATE":null,"DECAYED":0,"FILE":3183611,"GP_ID":188148935,"TLE_LINE0":"0 STARLINK-1554","TLE_LINE1":"1 46055U 20055AE  21298.64071519  .00001129  00000-0  94700-4 0  9994","TLE_LINE2":"2 46055  53.0553  81.5676 0001274  88.3668 271.7467 15.06398909 67927"},"height_km":552.2569803414053,"latitude":50.25441839069776,"launch":"5ed9819a1f30554030d45c29","longitude":-127.92641963109888,"velocity_kms":7.592228834161738,"version":"v1.0","id":"5f36cb59bd888300062740d7"},{"spaceTrack":{"CCSDS_OMM_VERS":"2.0","COMMENT":"GENERATED VIA SPACE-TRACK.ORG API","CREATION_DATE":"2021-10-26T06:46:11","ORIGINATOR":"18 SPCS","OBJECT_NAME":"STARLINK-1515","OBJECT_ID":"2020-055AQ","CENTER_NAME":"EARTH","REF_FRAME":"TEME","TIME_SYSTEM":"UTC","MEAN_ELEMENT_THEORY":"SGP4","EPOCH":"2021-10-25T15:50:27.134592","MEAN_MOTION":15.06400404,"ECCENTRICITY":0.0001726,"INCLINATION":53.0558,"RA_OF_ASC_NODE":61.5095,"ARG_OF_PERICENTER":97.3323,"MEAN_ANOMALY":262.7862,"EPHEMERIS_TYPE":0,"CLASSIFICATION_TYPE":"U","NORAD_CAT_ID":46065,"ELEMENT_SET_NO":999,"REV_AT_EPOCH":6824,"BSTAR":0.000042763,"MEAN_MOTION_DOT":0.00000355,"MEAN_MOTION_DDOT":0,"SEMIMAJOR_AXIS":6925.347,"PERIOD":95.592,"APOAPSIS":548.408,"PERIAPSIS":546.017,"OBJECT_TYPE":"PAYLOAD","RCS_SIZE":"LARGE","COUNTRY_CODE":"US","LAUNCH_DATE":"2020-08-07","SITE":"AFETR","DECAY_DATE":null,"DECAYED":0,"FILE":3184113,"GP_ID":188158970,"TLE_LINE0":"0 STARLINK-1515","TLE_LINE1":"1 46065U 20055AQ  21298.66003628  .00000355  00000-0  42763-4 0  9995","TLE_LINE2":"2 46065  53.0558  61.5095 0001726  97.3323 262.7862 15.06400404 68245"},"height_km":555.0996958911319,"latitude":-24.594118418638374,"launch":"5ed9819a1f30554030d45c29","longitude":128.00292509855524,"velocity_kms":7.583694310606768,"version":"v1.0","id":"5f36cb59bd888300062740d4"},{"spaceTrack":{"CCSDS_OMM_VERS":"2.0","COMMENT":"GENERATED VIA SPACE-TRACK.ORG API","CREATION_DATE":"2021-10-26T14:36:12","ORIGINATOR":"18 SPCS","OBJECT_NAME":"STARLINK-1572","OBJECT_ID":"2020-055AK","CENTER_NAME":"EARTH","REF_FRAME":"TEME","TIME_SYSTEM":"UTC","MEAN_ELEMENT_THEORY":"SGP4","EPOCH":"2021-10-26T09:46:37.492032","MEAN_MOTION":15.06401693,"ECCENTRICITY":0.0001327,"INCLINATION":53.0551,"RA_OF_ASC_NODE":78.116,"ARG_OF_PERICENTER":87.6598,"MEAN_ANOMALY":272.4542,"EPHEMERIS_TYPE":0,"CLASSIFICATION_TYPE":"U","NORAD_CAT_ID":46060,"ELEMENT_SET_NO":999,"REV_AT_EPOCH":6804,"BSTAR":0.00006143,"MEAN_MOTION_DOT":0.00000634,"MEAN_MOTION_DDOT":0,"SEMIMAJOR_AXIS":6925.343,"PERIOD":95.592,"APOAPSIS":548.127,"PERIAPSIS":546.289,"OBJECT_TYPE":"PAYLOAD","RCS_SIZE":"LARGE","COUNTRY_CODE":"US","LAUNCH_DATE":"2020-08-07","SITE":"AFETR","DECAY_DATE":null,"DECAYED":0,"FILE":3184692,"GP_ID":188172020,"TLE_LINE0":"0 STARLINK-1572","TLE_LINE1":"1 46060U 20055AK  21299.40737838  .00000634  00000-0  61430-4 0  9992","TLE_LINE2":"2 46060  53.0551  78.1160 0001327  87.6598 272.4542 15.06401693 68045"},"height_km":561.2635189649282,"latitude":-40.371099451196514,"launch":"5ed9819a1f30554030d45c29","longitude":27.467876709258878,"velocity_kms":7.580133121868533,"version":"v1.0","id":"5f36cb59bd888300062740d8"},{"spaceTrack":{"CCSDS_OMM_VERS":"2.0","COMMENT":"GENERATED VIA SPACE-TRACK.ORG API","CREATION_DATE":"2021-10-25T22:26:12","ORIGINATOR":"18 SPCS","OBJECT_NAME":"STARLINK-1564","OBJECT_ID":"2020-055AH","CENTER_NAME":"EARTH","REF_FRAME":"TEME","TIME_SYSTEM":"UTC","MEAN_ELEMENT_THEORY":"SGP4","EPOCH":"2021-10-25T12:59:18.576672","MEAN_MOTION":15.06405318,"ECCENTRICITY":0.0001412,"INCLINATION":53.0546,"RA_OF_ASC_NODE":81.9981,"ARG_OF_PERICENTER":83.6001,"MEAN_ANOMALY":276.5149,"EPHEMERIS_TYPE":0,"CLASSIFICATION_TYPE":"U","NORAD_CAT_ID":46058,"ELEMENT_SET_NO":999,"REV_AT_EPOCH":6792,"BSTAR":0.000093005,"MEAN_MOTION_DOT":0.00001104,"MEAN_MOTION_DDOT":0,"SEMIMAJOR_AXIS":6925.332,"PERIOD":95.592,"APOAPSIS":548.175,"PERIAPSIS":546.219,"OBJECT_TYPE":"PAYLOAD","RCS_SIZE":"LARGE","COUNTRY_CODE":"US","LAUNCH_DATE":"2020-08-07","SITE":"AFETR","DECAY_DATE":null,"DECAYED":0,"FILE":3183613,"GP_ID":188149102,"TLE_LINE0":"0 STARLINK-1564","TLE_LINE1":"1 46058U 20055AH  21298.54118723  .00001104  00000-0  93005-4 0  9995","TLE_LINE2":"2 46058  53.0546  81.9981 0001412  83.6001 276.5149 15.06405318 67921"},"height_km":565.4907431732827,"latitude":-50.30039161945822,"launch":"5ed9819a1f30554030d45c29","longitude":52.254689756228224,"velocity_kms":7.577729942385577,"version":"v1.0","id":"5f36cb5abd888300062740d9"}]